{
  "type": "FeatureCollection",
  "features": [
    {
      "type": "Feature",
      "properties": {
        "type": "Operational Intent"
      },
      "geometry": {
        "coordinates": [
          [
            [
              -45.857346663091334,
              -23.252436731771084
            ],
            [
              -45.857812069417804,
              -23.252610756308414
            ],
            [
              -45.85768218858246,
              -23.253063219042744
            ],
            [
              -45.85714643013645,
              -23.25330188008651
            ],
            [
              -45.85694619718251,
              -23.252690310307386
            ],
            [
              -45.857346663091334,
              -23.252436731771084
            ]
          ]
        ],
        "type": "Polygon"
      }
    },
    {
      "type": "Feature",
      "properties": {
        "type": "Drone Location"
      },
      "geometry": {
        "coordinates": [
          -45.85729254607625,
          -23.252789752738735
        ],
        "type": "Point"
      }
    },
    {
      "type": "Feature",
      "properties": {
        "type": "Operational Intent"
      },
      "geometry": {
        "coordinates": [
          [
            [
              -45.856643141900236,
              -23.25277980849917
            ],
            [
              -45.85655655467724,
              -23.253386405770243
            ],
            [
              -45.85596126751531,
              -23.253311824287152
            ],
            [
              -45.856156088768415,
              -23.25272014304467
            ],
            [
              -45.856643141900236,
              -23.25277980849917
            ]
          ]
        ],
        "type": "Polygon"
      }
    },
    {
      "type": "Feature",
      "properties": {
        "type":"Drone Location"
      },
      "geometry": {
        "coordinates": [
          -45.85631302811086,
          -23.25319249382754
        ],
        "type": "Point"
      }
    }
  ]
}