{
  "type": "FeatureCollection",
  "features": [
    {
      "type": "Feature",
      "properties": {
        "type": "Operational Intent"
      },
      "geometry": {
        "coordinates": [
          [
            [
              -45.857346663091334,
              -23.252436731771084
            ],
            [
              -45.857812069417804,
              -23.252610756308414
            ],
            [
              -45.85768218858246,
              -23.253063219042744
            ],
            [
              -45.85714643013645,
              -23.25330188008651
            ],
            [
              -45.85694619718251,
              -23.252690310307386
            ],
            [
              -45.857346663091334,
              -23.252436731771084
            ]
          ]
        ],
        "type": "Polygon"
      }
    },
    {
      "type": "Feature",
      "properties": {
        "type": "Drone Location"
      },
      "geometry": {
        "coordinates": [
          -45.85729254607625,
          -23.252789752738735
        ],
        "type": "Point"
      }
    },
    {
      "type": "Feature",
      "properties": {
        "type": "Operational Intent"
      },
      "geometry": {
        "coordinates": [
          [
            [
              -45.856643141900236,
              -23.25277980849917
            ],
            [
              -45.85655655467724,
              -23.253386405770243
            ],
            [
              -45.85596126751531,
              -23.253311824287152
            ],
            [
              -45.856156088768415,
              -23.25272014304467
            ],
            [
              -45.856643141900236,
              -23.25277980849917
            ]
          ]
        ],
        "type": "Polygon"
      }
    },
    {
      "type": "Feature",
      "properties": {
        "type": "Drone Location"
      },
      "geometry": {
        "coordinates": [
          -45.85631302811086,
          -23.25319249382754
        ],
        "type": "Point"
      }
    },
    {
      "type": "Feature",
      "properties": {
        "type": "Constraint"
      },
      "geometry": {
        "type": "Polygon",
        "coordinates": [
          [
            [
              -45.856756787631184,
              -23.25177148592005
            ],
            [
              -45.85682775736074,
              -23.251774689244705
            ],
            [
              -45.856898043623154,
              -23.25178426836938
            ],
            [
              -45.85696696953305,
              -23.251800131043215
            ],
            [
              -45.85703387130523,
              -23.251822124502205
            ],
            [
              -45.85709810464694,
              -23.251850036940287
            ],
            [
              -45.857159050962444,
              -23.251883599549043
            ],
            [
              -45.857216123310224,
              -23.251922489106335
            ],
            [
              -45.857268772055335,
              -23.251966331088948
            ],
            [
              -45.85731649016259,
              -23.252014703279286
            ],
            [
              -45.857358818079504,
              -23.252067139831375
            ],
            [
              -45.85739534816216,
              -23.252123135757042
            ],
            [
              -45.857425728601065,
              -23.25218215178903
            ],
            [
              -45.85744966680954,
              -23.25224361957432
            ],
            [
              -45.857466932241664,
              -23.252306947147506
            ],
            [
              -45.85747735861288,
              -23.252371524631656
            ],
            [
              -45.857480845501804,
              -23.252436730111647
            ],
            [
              -45.857477359317606,
              -23.25250193562352
            ],
            [
              -45.85746693362403,
              -23.2525665132021
            ],
            [
              -45.857449668816415,
              -23.252629840928638
            ],
            [
              -45.857425731155345,
              -23.252691308920298
            ],
            [
              -45.857395351165664,
              -23.252750325203756
            ],
            [
              -45.857358821416824,
              -23.252806321416315
            ],
            [
              -45.85731649370546,
              -23.252858758279704
            ],
            [
              -45.85726877566763,
              -23.252907130793783
            ],
            [
              -45.85721612685311,
              -23.252950973100134
            ],
            [
              -45.85715905429976,
              -23.25298986296873
            ],
            [
              -45.85709810765044,
              -23.25302342586438
            ],
            [
              -45.85703387385949,
              -23.253051338553927
            ],
            [
              -45.85696697153992,
              -23.25307333221929
            ],
            [
              -45.85689804500551,
              -23.253089195046474
            ],
            [
              -45.85682775806546,
              -23.253098774265574
            ],
            [
              -45.856756787631184,
              -23.253101977622123
            ],
            [
              -45.856685817196905,
              -23.253098774265574
            ],
            [
              -45.85661553025685,
              -23.253089195046474
            ],
            [
              -45.85654660372244,
              -23.25307333221929
            ],
            [
              -45.85647970140287,
              -23.253051338553927
            ],
            [
              -45.856415467611924,
              -23.25302342586438
            ],
            [
              -45.856354520962604,
              -23.25298986296873
            ],
            [
              -45.85629744840925,
              -23.252950973100134
            ],
            [
              -45.856244799594734,
              -23.252907130793783
            ],
            [
              -45.8561970815569,
              -23.252858758279704
            ],
            [
              -45.856154753845544,
              -23.252806321416315
            ],
            [
              -45.856118224096704,
              -23.252750325203756
            ],
            [
              -45.856087844107016,
              -23.252691308920298
            ],
            [
              -45.85606390644595,
              -23.252629840928638
            ],
            [
              -45.85604664163834,
              -23.2525665132021
            ],
            [
              -45.856036215944755,
              -23.25250193562352
            ],
            [
              -45.85603272976056,
              -23.252436730111647
            ],
            [
              -45.85603621664948,
              -23.252371524631656
            ],
            [
              -45.8560466430207,
              -23.252306947147506
            ],
            [
              -45.85606390845282,
              -23.25224361957432
            ],
            [
              -45.856087846661296,
              -23.25218215178903
            ],
            [
              -45.856118227100204,
              -23.252123135757042
            ],
            [
              -45.856154757182864,
              -23.252067139831375
            ],
            [
              -45.85619708509978,
              -23.252014703279286
            ],
            [
              -45.85624480320703,
              -23.251966331088948
            ],
            [
              -45.85629745195214,
              -23.251922489106335
            ],
            [
              -45.85635452429992,
              -23.251883599549043
            ],
            [
              -45.85641547061543,
              -23.251850036940287
            ],
            [
              -45.85647970395715,
              -23.251822124502205
            ],
            [
              -45.85654660572933,
              -23.251800131043215
            ],
            [
              -45.85661553163922,
              -23.25178426836938
            ],
            [
              -45.85668581790163,
              -23.251774689244705
            ],
            [
              -45.856756787631184,
              -23.25177148592005
            ]
          ]
        ]
      }
    }
  ]
}